{
  "norad_id": 64277,
  "name": "STARLINK-34264",
  "history": [
    {
      "epoch": "2026-03-28T13:27:11.996928Z",
      "apogee_km": 476.1544980379376,
      "perigee_km": 474.18348723445433,
      "latitude_deg": -5.5224541738910674e-05,
      "longitude_deg": 1.3758271337185886,
      "height_km": 476.21658443008357,
      "semi_major_axis_km": 6853.305992636196,
      "eccentricity": 0.0001438,
      "inclination_deg": 53.1631,
      "raan_deg": 29.1551,
      "arg_perigee_deg": 98.7184,
      "mean_anomaly_deg": 261.3979,
      "mean_motion_rev_day": 15.30215432
    },
    {
      "epoch": "2026-03-29T03:33:40.535712Z",
      "apogee_km": 475.99989845805067,
      "perigee_km": 474.34276850301467,
      "latitude_deg": -5.147046174127038e-06,
      "longitude_deg": 146.44866075123437,
      "height_km": 476.0225031011247,
      "semi_major_axis_km": 6853.308333480532,
      "eccentricity": 0.0001209,
      "inclination_deg": 53.1626,
      "raan_deg": 26.4262,
      "arg_perigee_deg": 86.7289,
      "mean_anomaly_deg": 273.385,
      "mean_motion_rev_day": 15.30214648
    },
    {
      "epoch": "2026-03-30T04:38:32.212032Z",
      "apogee_km": 476.05300110651297,
      "perigee_km": 474.48357129597207,
      "latitude_deg": 3.166777871737041e-05,
      "longitude_deg": 124.34922989344145,
      "height_km": 475.9918464756745,
      "semi_major_axis_km": 6853.405286201242,
      "eccentricity": 0.0001145,
      "inclination_deg": 53.1629,
      "raan_deg": 21.5721,
      "arg_perigee_deg": 77.112,
      "mean_anomaly_deg": 283.0009,
      "mean_motion_rev_day": 15.30182177
    },
    {
      "epoch": "2026-03-30T04:38:32.212896Z",
      "apogee_km": 476.05327524272434,
      "perigee_km": 474.4832971597607,
      "latitude_deg": 2.8067241241046234e-05,
      "longitude_deg": 124.34922360131914,
      "height_km": 475.9917853320641,
      "semi_major_axis_km": 6853.405286201242,
      "eccentricity": 0.00011454,
      "inclination_deg": 53.1629,
      "raan_deg": 21.5721,
      "arg_perigee_deg": 77.112,
      "mean_anomaly_deg": 283.0009,
      "mean_motion_rev_day": 15.30182177
    },
    {
      "epoch": "2026-03-30T12:28:48.394848Z",
      "apogee_km": 476.1454183811029,
      "perigee_km": 474.3343450063476,
      "latitude_deg": -6.49965782122097e-05,
      "longitude_deg": 4.943141679035194,
      "height_km": 476.2023242592342,
      "semi_major_axis_km": 6853.376881693725,
      "eccentricity": 0.00013213,
      "inclination_deg": 53.1633,
      "raan_deg": 20.0554,
      "arg_perigee_deg": 94.0575,
      "mean_anomaly_deg": 266.0576,
      "mean_motion_rev_day": 15.3019169
    },
    {
      "epoch": "2026-03-31T11:59:36.421440Z",
      "apogee_km": 476.73110960286067,
      "perigee_km": 473.70274956845606,
      "latitude_deg": 3.631248829960244e-06,
      "longitude_deg": 6.7274246697989195,
      "height_km": 475.92802291962585,
      "semi_major_axis_km": 6853.353929585658,
      "eccentricity": 0.00022094,
      "inclination_deg": 53.1616,
      "raan_deg": 15.5054,
      "arg_perigee_deg": 82.9504,
      "mean_anomaly_deg": 277.1748,
      "mean_motion_rev_day": 15.30199377
    },
    {
      "epoch": "2026-04-01T11:30:24.341760Z",
      "apogee_km": 476.58924651812595,
      "perigee_km": 473.77938477871066,
      "latitude_deg": 4.888373666152444e-06,
      "longitude_deg": 8.508201521992065,
      "height_km": 475.8347350106356,
      "semi_major_axis_km": 6853.321315648418,
      "eccentricity": 0.000205,
      "inclination_deg": 53.1616,
      "raan_deg": 10.9515,
      "arg_perigee_deg": 79.8837,
      "mean_anomaly_deg": 280.2395,
      "mean_motion_rev_day": 15.302103
    },
    {
      "epoch": "2026-04-02T17:17:24.126432Z",
      "apogee_km": 476.3582253801678,
      "perigee_km": 473.9170889472862,
      "latitude_deg": 1.7872614764743385e-05,
      "longitude_deg": -85.22254603946905,
      "height_km": 476.2784881475853,
      "semi_major_axis_km": 6853.274657163726,
      "eccentricity": 0.0001781,
      "inclination_deg": 53.1596,
      "raan_deg": 5.193,
      "arg_perigee_deg": 101.5058,
      "mean_anomaly_deg": 258.6143,
      "mean_motion_rev_day": 15.30225927
    },
    {
      "epoch": "2026-04-02T21:59:33.224064Z",
      "apogee_km": 475.72865145001015,
      "perigee_km": 474.43435260371643,
      "latitude_deg": 1.7096822689381e-05,
      "longitude_deg": -156.86467920734918,
      "height_km": 476.07570163238,
      "semi_major_axis_km": 6853.218502026863,
      "eccentricity": 9.443e-05,
      "inclination_deg": 53.1602,
      "raan_deg": 4.2819,
      "arg_perigee_deg": 98.4984,
      "mean_anomaly_deg": 261.6124,
      "mean_motion_rev_day": 15.30244735
    },
    {
      "epoch": "2026-04-03T18:22:15.972960Z",
      "apogee_km": 476.1320832456122,
      "perigee_km": 474.5516710165457,
      "latitude_deg": -2.3742978259464626e-05,
      "longitude_deg": -107.32384698832172,
      "height_km": 476.4231561266023,
      "semi_major_axis_km": 6853.478877131079,
      "eccentricity": 0.0001153,
      "inclination_deg": 53.1608,
      "raan_deg": 0.3378,
      "arg_perigee_deg": 103.3854,
      "mean_anomaly_deg": 256.7275,
      "mean_motion_rev_day": 15.30157531
    },
    {
      "epoch": "2026-04-04T21:01:10.117920Z",
      "apogee_km": 475.8106250559549,
      "perigee_km": 474.39748675022656,
      "latitude_deg": -2.3916317549321646e-05,
      "longitude_deg": -153.30116178328342,
      "height_km": 475.78886505495956,
      "semi_major_axis_km": 6853.2410559030905,
      "eccentricity": 0.0001031,
      "inclination_deg": 53.1605,
      "raan_deg": 355.1805,
      "arg_perigee_deg": 72.3928,
      "mean_anomaly_deg": 287.7185,
      "mean_motion_rev_day": 15.30237181
    },
    {
      "epoch": "2026-04-05T00:09:16.804800Z",
      "apogee_km": 475.8936247657248,
      "perigee_km": 474.90438537875343,
      "latitude_deg": -4.174528734863132e-06,
      "longitude_deg": 158.9362330843297,
      "height_km": 476.38735782232953,
      "semi_major_axis_km": 6853.536005072239,
      "eccentricity": 7.217e-05,
      "inclination_deg": 53.1601,
      "raan_deg": 354.5745,
      "arg_perigee_deg": 100.4303,
      "mean_anomaly_deg": 259.6779,
      "mean_motion_rev_day": 15.30138399
    },
    {
      "epoch": "2026-04-05T20:31:58.940256Z",
      "apogee_km": 475.6904191351932,
      "perigee_km": 474.68160998745043,
      "latitude_deg": 1.2354147818655837e-05,
      "longitude_deg": -151.52103047918,
      "height_km": 476.17137265743315,
      "semi_major_axis_km": 6853.3230145613215,
      "eccentricity": 7.36e-05,
      "inclination_deg": 53.1607,
      "raan_deg": 350.6297,
      "arg_perigee_deg": 99.8722,
      "mean_anomaly_deg": 260.2362,
      "mean_motion_rev_day": 15.30209731
    },
    {
      "epoch": "2026-04-06T02:48:11.301408Z",
      "apogee_km": 475.59986045354253,
      "perigee_km": 474.64753134724015,
      "latitude_deg": -1.915373543135026e-05,
      "longitude_deg": 112.95533682785586,
      "height_km": 476.04936642762647,
      "semi_major_axis_km": 6853.260695900391,
      "eccentricity": 6.948e-05,
      "inclination_deg": 53.1604,
      "raan_deg": 349.4151,
      "arg_perigee_deg": 93.223,
      "mean_anomaly_deg": 266.885,
      "mean_motion_rev_day": 15.30230603
    },
    {
      "epoch": "2026-04-06T23:10:52.256640Z",
      "apogee_km": 475.45091769357714,
      "perigee_km": 474.86208271603937,
      "latitude_deg": 3.603224592001366e-05,
      "longitude_deg": 162.50513254259846,
      "height_km": 476.0179450685475,
      "semi_major_axis_km": 6853.293500204808,
      "eccentricity": 4.296e-05,
      "inclination_deg": 53.161,
      "raan_deg": 345.4724,
      "arg_perigee_deg": 82.6138,
      "mean_anomaly_deg": 277.4912,
      "mean_motion_rev_day": 15.30219616
    },
    {
      "epoch": "2026-04-07T16:25:27.555744Z",
      "apogee_km": 475.73140914177293,
      "perigee_km": 474.64173069415574,
      "latitude_deg": 1.2571318538294705e-05,
      "longitude_deg": -100.18881716846157,
      "height_km": 476.08839833107965,
      "semi_major_axis_km": 6853.323569917964,
      "eccentricity": 7.95e-05,
      "inclination_deg": 53.1615,
      "raan_deg": 342.1337,
      "arg_perigee_deg": 90.3107,
      "mean_anomaly_deg": 269.7985,
      "mean_motion_rev_day": 15.30209545
    },
    {
      "epoch": "2026-04-08T09:40:02.755488Z",
      "apogee_km": 475.834064559589,
      "perigee_km": 474.56290789360446,
      "latitude_deg": -1.7005063443232636e-05,
      "longitude_deg": -2.8800563795232157,
      "height_km": 475.90919725904797,
      "semi_major_axis_km": 6853.335486226597,
      "eccentricity": 9.274e-05,
      "inclination_deg": 53.1619,
      "raan_deg": 338.7973,
      "arg_perigee_deg": 72.7861,
      "mean_anomaly_deg": 287.3241,
      "mean_motion_rev_day": 15.30205554
    }
  ]
}